LANDSAT 9               
1 49260U 21088A   24135.45415183  .00001438  00000+0  32899-3 0  9995
2 49260  98.1882 205.6420 0001278  88.8487 271.2858 14.57134454139788
